$$SOE
2460154.500000000, A.D. 2023-Jul-29 00:00:00.0000, -1.812869829073725E+08, -2.392378624612643E+08, -5.437575906128520E+07,
2460161.500000000, A.D. 2023-Aug-05 00:00:00.0000, -1.725552482971438E+08, -2.474734855585601E+08, -5.160138660076436E+07,
2460168.500000000, A.D. 2023-Aug-12 00:00:00.0000, -1.635314282349851E+08, -2.552902034638922E+08, -4.873964995321600E+07,
2460175.500000000, A.D. 2023-Aug-19 00:00:00.0000, -1.542334829333037E+08, -2.626789698982223E+08, -4.579619295285369E+07,
2460182.500000000, A.D. 2023-Aug-26 00:00:00.0000, -1.446794274009203E+08, -2.696315285448217E+08, -4.277667037418260E+07,
2460189.500000000, A.D. 2023-Sep-02 00:00:00.0000, -1.348873076113376E+08, -2.761403912964534E+08, -3.968674070135441E+07,
2460196.500000000, A.D. 2023-Sep-09 00:00:00.0000, -1.248751789062644E+08, -2.821988168652162E+08, -3.653205960492745E+07,
2460203.500000000, A.D. 2023-Sep-16 00:00:00.0000, -1.146610863194800E+08, -2.878007899484861E+08, -3.331827409900162E+07,
2460210.500000000, A.D. 2023-Sep-23 00:00:00.0000, -1.042630462583840E+08, -2.929410007810102E+08, -3.005101734661293E+07,
2460217.500000000, A.D. 2023-Sep-30 00:00:00.0000, -9.369902973872350E+07, -2.976148239821534E+08, -2.673590393891390E+07,
2460224.500000000, A.D. 2023-Oct-07 00:00:00.0000, -8.298694938430274E+07, -3.018182973239143E+08, -2.337852543168017E+07,
2460231.500000000, A.D. 2023-Oct-14 00:00:00.0000, -7.214464901208878E+07, -3.055481038033464E+08, -1.998444646234183E+07,
2460238.500000000, A.D. 2023-Oct-21 00:00:00.0000, -6.118989244036888E+07, -3.088015554797886E+08, -1.655920157179658E+07,
2460245.500000000, A.D. 2023-Oct-28 00:00:00.0000, -5.014035281739748E+07, -3.115765768691151E+08, -1.310829237558979E+07,
2460252.500000000, A.D. 2023-Nov-04 00:00:00.0000, -3.901360359824844E+07, -3.138716887054252E+08, -9.637184993542820E+06,
2460259.500000000, A.D. 2023-Nov-11 00:00:00.0000, -2.782711087473393E+07, -3.156859927001078E+08, -6.151307765279308E+06,
2460266.500000000, A.D. 2023-Nov-18 00:00:00.0000, -1.659822672601168E+07, -3.170191573832046E+08, -2.656049240884185E+06,
2460273.500000000, A.D. 2023-Nov-25 00:00:00.0000, -5.344183406963397E+06, -3.178714050173581E+08, 8.432435823679864E+05,
2460280.500000000, A.D. 2023-Dec-02 00:00:00.0000, 5.917911761276165E+06, -3.182434996054024E+08, 4.341266805524483E+06,
2460287.500000000, A.D. 2023-Dec-09 00:00:00.0000, 1.717108097817372E+07, -3.181367360591626E+08, 7.832760974598289E+06,
2460294.500000000, A.D. 2023-Dec-16 00:00:00.0000, 2.839848041063591E+07, -3.175529305210752E+08, 1.131251223328674E+07,
2460301.500000000, A.D. 2023-Dec-23 00:00:00.0000, 3.958340493887413E+07, -3.164944111492088E+08, 1.477535333516985E+07,
2460308.500000000, A.D. 2023-Dec-30 00:00:00.0000, 5.070929194835193E+07, -3.149640083087233E+08, 1.821616475174926E+07,
2460315.500000000, A.D. 2024-Jan-06 00:00:00.0000, 6.175972248031268E+07, -3.129650465168314E+08, 2.162987587183024E+07,
2460322.500000000, A.D. 2024-Jan-13 00:00:00.0000, 7.271842299805571E+07, -3.105013399328125E+08, 2.501146587804215E+07,
2460329.500000000, A.D. 2024-Jan-20 00:00:00.0000, 8.356926907468012E+07, -3.075771882954596E+08, 2.835596446473812E+07,
2460336.500000000, A.D. 2024-Jan-27 00:00:00.0000, 9.429628905191247E+07, -3.041973726409245E+08, 3.165845266093050E+07,
2460343.500000000, A.D. 2024-Feb-03 00:00:00.0000, 1.048836673178959E+08, -3.003671517309322E+08, 3.491406374377258E+07,
2460350.500000000, A.D. 2024-Feb-10 00:00:00.0000, 1.153157475563626E+08, -2.960922594617609E+08, 3.811798421686320E+07,
2460357.500000000, A.D. 2024-Feb-17 00:00:00.0000, 1.255770361791432E+08, -2.913789032239007E+08, 4.126545486481100E+07,
2460364.500000000, A.D. 2024-Feb-24 00:00:00.0000, 1.356522060487212E+08, -2.862337631729426E+08, 4.435177190510632E+07,
2460371.500000000, A.D. 2024-Mar-02 00:00:00.0000, 1.455261005891297E+08, -2.806639924160318E+08, 4.737228825431301E+07,
2460378.500000000, A.D. 2024-Mar-09 00:00:00.0000, 1.551837384915565E+08, -2.746772181457798E+08, 5.032241491258770E+07,
2460385.500000000, A.D. 2024-Mar-16 00:00:00.0000, 1.646103194747256E+08, -2.682815434897841E+08, 5.319762246699522E+07,
2460392.500000000, A.D. 2024-Mar-23 00:00:00.0000, 1.737912310608108E+08, -2.614855489246686E+08, 5.599344283100653E+07,
2460399.500000000, A.D. 2024-Mar-30 00:00:00.0000, 1.827120541966003E+08, -2.542982932324397E+08, 5.870547143861345E+07,
2460406.500000000, A.D. 2024-Apr-06 00:00:00.0000, 1.913585680558864E+08, -2.467293173170928E+08, 6.132936961212157E+07,
2460413.500000000, A.D. 2024-Apr-13 00:00:00.0000, 1.997167576583548E+08, -2.387886500016884E+08, 6.386086687079000E+07,
2460420.500000000, A.D. 2024-Apr-20 00:00:00.0000, 2.077728234320553E+08, -2.304868130899295E+08, 6.629576351547936E+07,
2460427.500000000, A.D. 2024-Apr-27 00:00:00.0000, 2.155131912738128E+08, -2.218348262073996E+08, 6.862993361016005E+07,
2460434.500000000, A.D. 2024-May-04 00:00:00.0000, 2.229245232641973E+08, -2.128442120678938E+08, 7.085932831881462E+07,
2460441.500000000, A.D. 2024-May-11 00:00:00.0000, 2.299937293457846E+08, -2.035270021989061E+08, 7.297997958970578E+07,
2460448.500000000, A.D. 2024-May-18 00:00:00.0000, 2.367079801194441E+08, -1.938957430296711E+08, 7.498800420314939E+07,
2460455.500000000, A.D. 2024-May-25 00:00:00.0000, 2.430547208569161E+08, -1.839635022675473E+08, 7.687960820188795E+07,
2460462.500000000, A.D. 2024-Jun-01 00:00:00.0000, 2.490216868618494E+08, -1.737438755309100E+08, 7.865109171472128E+07,
2460469.500000000, A.D. 2024-Jun-08 00:00:00.0000, 2.545969204976839E+08, -1.632509931611313E+08, 8.029885416835099E+07,
2460476.500000000, A.D. 2024-Jun-15 00:00:00.0000, 2.597687903575704E+08, -1.524995265582388E+08, 8.181939991693331E+07,
2460483.500000000, A.D. 2024-Jun-22 00:00:00.0000, 2.645260116482727E+08, -1.415046927507236E+08, 8.320934450302598E+07,
2460490.500000000, A.D. 2024-Jun-29 00:00:00.0000, 2.688576657360244E+08, -1.302822588987577E+08, 8.446542161863841E+07,
2460497.500000000, A.D. 2024-Jul-06 00:00:00.0000, 2.727532215601968E+08, -1.188485490629644E+08, 8.558449033839877E+07,
2460504.500000000, A.D. 2024-Jul-13 00:00:00.0000, 2.762025609235637E+08, -1.072204502593163E+08, 8.656354269243482E+07,
2460511.500000000, A.D. 2024-Jul-20 00:00:00.0000, 2.791960057311385E+08, -9.541541648556240E+07, 8.739971187168586E+07,
2460518.500000000, A.D. 2024-Jul-27 00:00:00.0000, 2.817243465717512E+08, -8.345147150043181E+07, 8.809028106216484E+07,
2460525.500000000, A.D. 2024-Aug-03 00:00:00.0000, 2.837788729558789E+08, -7.134721053736311E+07, 8.863269286393663E+07,
2460532.500000000, A.D. 2024-Aug-10 00:00:00.0000, 2.853514054055139E+08, -5.912180074832729E+07, 8.902455928726222E+07,
2460539.500000000, A.D. 2024-Aug-17 00:00:00.0000, 2.864343294613088E+08, -4.679498013140185E+07, 8.926367232778345E+07,
2460546.500000000, A.D. 2024-Aug-24 00:00:00.0000, 2.870206316387302E+08, -3.438705472459029E+07, 8.934801511685729E+07,
2460553.500000000, A.D. 2024-Aug-31 00:00:00.0000, 2.871039374354685E+08, -2.191889387412523E+07, 8.927577362643231E+07,
2460560.500000000, A.D. 2024-Sep-07 00:00:00.0000, 2.866785517185702E+08, -9.411923184077628E+06, 8.904534889072786E+07,
2460567.500000000, A.D. 2024-Sep-14 00:00:00.0000, 2.857395015129130E+08, 3.111886135276578E+06, 8.865536979363129E+07,
2460574.500000000, A.D. 2024-Sep-21 00:00:00.0000, 2.842825790812297E+08, 1.563003223606000E+07, 8.810470661569558E+07,
2460581.500000000, A.D. 2024-Sep-28 00:00:00.0000, 2.823043847025959E+08, 2.811949899423344E+07, 8.739248508781871E+07,
2460588.500000000, A.D. 2024-Oct-05 00:00:00.0000, 2.798023726674975E+08, 4.055677407841618E+07, 8.651810055937697E+07,
2460595.500000000, A.D. 2024-Oct-12 00:00:00.0000, 2.767748999371448E+08, 5.291787203693542E+07, 8.548123248879130E+07,
2460602.500000000, A.D. 2024-Oct-19 00:00:00.0000, 2.732212754899697E+08, 6.517836247024028E+07, 8.428185931967501E+07,
2460609.500000000, A.D. 2024-Oct-26 00:00:00.0000, 2.691418100560272E+08, 7.731340282466377E+07, 8.292027359525976E+07,
2460616.500000000, A.D. 2024-Nov-02 00:00:00.0000, 2.645378661841860E+08, 8.929777599027935E+07, 8.139709717913505E+07,
2460623.500000000, A.D. 2024-Nov-09 00:00:00.0000, 2.594119083774582E+08, 1.011059330416341E+08, 7.971329646534255E+07,
2460630.500000000, A.D. 2024-Nov-16 00:00:00.0000, 2.537675529091304E+08, 1.127120414200346E+08, 7.787019744966155E+07,
2460637.500000000, A.D. 2024-Nov-23 00:00:00.0000, 2.476096168992552E+08, 1.240900387802680E+08, 7.586950051053740E+07,
2460644.500000000, A.D. 2024-Nov-30 00:00:00.0000, 2.409441663389836E+08, 1.352136926991534E+08, 7.371329471696776E+07,
2460651.500000000, A.D. 2024-Dec-07 00:00:00.0000, 2.337785629090769E+08, 1.460566668606301E+08, 7.140407148081705E+07,
2460658.500000000, A.D. 2024-Dec-14 00:00:00.0000, 2.261215082676467E+08, 1.565925950757781E+08, 6.894473751371570E+07,
2460665.500000000, A.D. 2024-Dec-21 00:00:00.0000, 2.179830827935911E+08, 1.667951619792008E+08, 6.633862698264843E+07,
2460672.500000000, A.D. 2024-Dec-28 00:00:00.0000, 2.093747800383971E+08, 1.766381874425903E+08, 6.358951221615224E+07,
2460679.500000000, A.D. 2025-Jan-04 00:00:00.0000, 2.003095387083063E+08, 1.860957169821686E+08, 6.070161266177940E+07,
2460686.500000000, A.D. 2025-Jan-11 00:00:00.0000, 1.908017695166618E+08, 1.951421196326335E+08, 5.767960212791210E+07,
2460693.500000000, A.D. 2025-Jan-18 00:00:00.0000, 1.808673751294430E+08, 2.037521920950760E+08, 5.452861406001657E+07,
2460700.500000000, A.D. 2025-Jan-25 00:00:00.0000, 1.705237625952132E+08, 2.119012683016044E+08, 5.125424454424730E+07,
2460707.500000000, A.D. 2025-Feb-01 00:00:00.0000, 1.597898476172184E+08, 2.195653338520178E+08, 4.786255277681638E+07,
2460714.500000000, A.D. 2025-Feb-08 00:00:00.0000, 1.486860499177085E+08, 2.267211446840283E+08, 4.436005875204974E+07,
2460721.500000000, A.D. 2025-Feb-15 00:00:00.0000, 1.372342789459620E+08, 2.333463491557938E+08, 4.075373792538345E+07,
$$EOE